GLOBALSTAR M084         
1 38040U 11080A   26018.52066733 -.00000110  00000+0 -33822-4 0  9999
2 38040  52.0005 112.9213 0001010 123.8029 249.5939 12.62267046649865
GLOBALSTAR M080         
1 38041U 11080B   26018.57132836 -.00000105  00000+0 -69106-5 0  9992
2 38041  52.0058 114.4338 0000327 116.9139 256.5277 12.62265432649998
GLOBALSTAR M082         
1 38042U 11080C   26018.42831105 -.00000079  00000+0  13714-3 0  9993
2 38042  52.0083  70.3544 0000175 115.9191 257.0775 12.62266729650681
GLOBALSTAR M092         
1 38043U 11080D   26018.64004246 -.00000116  00000+0 -70133-4 0  9998
2 38043  52.0068 160.0972 0000966 103.2175 272.3029 12.62269438649160
GLOBALSTAR M090         
1 38044U 11080E   26018.37594137 -.00000083  00000+0  11748-3 0  9990
2 38044  52.0129  64.4217 0000445 101.6812 271.9997 12.62265878650794
GLOBALSTAR M086         
1 38045U 11080F   26018.50830953 -.00000082  00000+0  11893-3 0  9995
2 38045  51.9904  64.1924 0001505  88.2064  59.2066 12.62282130650753
GLOBALSTAR M097         
1 39072U 13005A   26018.58361799 -.00000102  00000+0  10780-4 0  9998
2 39072  52.0071 338.7420 0000591  56.1543 303.9380 12.62268180598019
GLOBALSTAR M093         
1 39073U 13005B   26018.55744145 -.00000097  00000+0  35440-4 0  9999
2 39073  52.0129 332.1130 0000815  41.9461 318.1468 12.62271661597966
